{
  "norad_id": 62403,
  "name": "BANDWAGON-2 OBJECT AC",
  "history": [
    {
      "epoch": "2026-04-18T13:27:48.937248Z",
      "apogee_km": 459.6349907037202,
      "perigee_km": 451.8389073026974,
      "latitude_deg": -6.823466846772994e-05,
      "longitude_deg": -162.0216902014062,
      "height_km": 455.7447578580179,
      "semi_major_axis_km": 6833.8739490032085,
      "eccentricity": 0.0005704,
      "inclination_deg": 45.0045,
      "raan_deg": 246.6105,
      "arg_perigee_deg": 269.9284,
      "mean_anomaly_deg": 90.0948,
      "mean_motion_rev_day": 15.36746795
    },
    {
      "epoch": "2026-04-19T15:59:05.454240Z",
      "apogee_km": 459.49861574659826,
      "perigee_km": 451.7707133974336,
      "latitude_deg": 3.690445461733409e-08,
      "longitude_deg": 152.95356681101904,
      "height_km": 455.2432854639939,
      "semi_major_axis_km": 6833.771664572016,
      "eccentricity": 0.00056542,
      "inclination_deg": 45.0044,
      "raan_deg": 240.4937,
      "arg_perigee_deg": 275.8574,
      "mean_anomaly_deg": 84.1668,
      "mean_motion_rev_day": 15.36781297
    },
    {
      "epoch": "2026-04-21T11:39:56.075616Z",
      "apogee_km": 459.29986511494644,
      "perigee_km": 451.64185080500283,
      "latitude_deg": 3.2804855646387456e-05,
      "longitude_deg": -154.12603067296615,
      "height_km": 454.45451257867325,
      "semi_major_axis_km": 6833.607857959974,
      "eccentricity": 0.00056032,
      "inclination_deg": 45.0037,
      "raan_deg": 230.4189,
      "arg_perigee_deg": 285.4373,
      "mean_anomaly_deg": 74.5895,
      "mean_motion_rev_day": 15.36836554
    },
    {
      "epoch": "2026-04-22T14:11:06.652608Z",
      "apogee_km": 459.2017108973878,
      "perigee_km": 451.5386159643167,
      "latitude_deg": -1.5409978483248935e-05,
      "longitude_deg": 160.87352633806256,
      "height_km": 454.02101792472615,
      "semi_major_axis_km": 6833.5071634308515,
      "eccentricity": 0.0005607,
      "inclination_deg": 45.0032,
      "raan_deg": 224.3017,
      "arg_perigee_deg": 290.6616,
      "mean_anomaly_deg": 69.3669,
      "mean_motion_rev_day": 15.36870523
    },
    {
      "epoch": "2026-04-23T13:35:03.661440Z",
      "apogee_km": 459.09648631413893,
      "perigee_km": 451.45918855522814,
      "latitude_deg": 2.1832609683733897e-06,
      "longitude_deg": 163.52733530334126,
      "height_km": 453.6545267775269,
      "semi_major_axis_km": 6833.414837434683,
      "eccentricity": 0.00055882,
      "inclination_deg": 45.0032,
      "raan_deg": 218.904,
      "arg_perigee_deg": 295.203,
      "mean_anomaly_deg": 64.8277,
      "mean_motion_rev_day": 15.3690167
    },
    {
      "epoch": "2026-04-24T16:06:10.256256Z",
      "apogee_km": 458.9716576291612,
      "perigee_km": 451.37165174341953,
      "latitude_deg": 1.4785363405090157e-05,
      "longitude_deg": 118.54289202060917,
      "height_km": 453.2607874744574,
      "semi_major_axis_km": 6833.30865468629,
      "eccentricity": 0.0005561,
      "inclination_deg": 45.0035,
      "raan_deg": 212.7861,
      "arg_perigee_deg": 300.2372,
      "mean_anomaly_deg": 59.7964,
      "mean_motion_rev_day": 15.36937493
    },
    {
      "epoch": "2026-04-25T23:18:00.574272Z",
      "apogee_km": 458.75912746325685,
      "perigee_km": 451.2526466760946,
      "latitude_deg": -1.3756919463585263e-05,
      "longitude_deg": 2.1035768693368526,
      "height_km": 452.76917547839287,
      "semi_major_axis_km": 6833.142887069675,
      "eccentricity": 0.00054927,
      "inclination_deg": 45.0039,
      "raan_deg": 205.5877,
      "arg_perigee_deg": 306.6303,
      "mean_anomaly_deg": 53.4078,
      "mean_motion_rev_day": 15.36993421
    },
    {
      "epoch": "2026-04-27T06:29:46.829760Z",
      "apogee_km": 458.53118465244097,
      "perigee_km": 451.1556655815684,
      "latitude_deg": -3.4815788795145545e-05,
      "longitude_deg": -114.31855616696508,
      "height_km": 452.2896300989719,
      "semi_major_axis_km": 6832.980425117004,
      "eccentricity": 0.0005397,
      "inclination_deg": 45.0039,
      "raan_deg": 198.3895,
      "arg_perigee_deg": 313.8814,
      "mean_anomaly_deg": 46.1626,
      "mean_motion_rev_day": 15.37048237
    },
    {
      "epoch": "2026-04-28T13:41:29.298336Z",
      "apogee_km": 458.3425385503924,
      "perigee_km": 451.06146530993647,
      "latitude_deg": 5.6693959320063845e-05,
      "longitude_deg": 129.27534495436396,
      "height_km": 451.8593995509173,
      "semi_major_axis_km": 6832.839001930164,
      "eccentricity": 0.0005328,
      "inclination_deg": 45.0037,
      "raan_deg": 191.1914,
      "arg_perigee_deg": 321.3893,
      "mean_anomaly_deg": 38.6613,
      "mean_motion_rev_day": 15.37095957
    },
    {
      "epoch": "2026-04-29T11:31:39.080352Z",
      "apogee_km": 458.1978781178923,
      "perigee_km": 451.03237096488556,
      "latitude_deg": 2.4788128683622982e-05,
      "longitude_deg": 155.79888052572048,
      "height_km": 451.6209861326653,
      "semi_major_axis_km": 6832.752124541388,
      "eccentricity": 0.00052435,
      "inclination_deg": 45.0034,
      "raan_deg": 186.1525,
      "arg_perigee_deg": 326.743,
      "mean_anomaly_deg": 33.3127,
      "mean_motion_rev_day": 15.37125273
    },
    {
      "epoch": "2026-04-30T10:55:22.140768Z",
      "apogee_km": 458.01826233881184,
      "perigee_km": 451.0023634249983,
      "latitude_deg": 2.8776501540113917e-05,
      "longitude_deg": 158.50975540475682,
      "height_km": 451.4091405449168,
      "semi_major_axis_km": 6832.647312881905,
      "eccentricity": 0.00051341,
      "inclination_deg": 45.0028,
      "raan_deg": 180.7536,
      "arg_perigee_deg": 332.1841,
      "mean_anomaly_deg": 27.8771,
      "mean_motion_rev_day": 15.37160642
    },
    {
      "epoch": "2026-05-02T09:42:41.772960Z",
      "apogee_km": 457.6095675242186,
      "perigee_km": 450.9288407378199,
      "latitude_deg": 1.0530943039285714e-05,
      "longitude_deg": 163.95698676968564,
      "height_km": 451.08357148567956,
      "semi_major_axis_km": 6832.406204131019,
      "eccentricity": 0.0004889,
      "inclination_deg": 45.0015,
      "raan_deg": 169.9542,
      "arg_perigee_deg": 342.5251,
      "mean_anomaly_deg": 17.5467,
      "mean_motion_rev_day": 15.3724201
    },
    {
      "epoch": "2026-05-02T11:16:16.286016Z",
      "apogee_km": 457.5991686683501,
      "perigee_km": 450.92937854505453,
      "latitude_deg": 6.60071663228221e-05,
      "longitude_deg": 140.13968742840285,
      "height_km": 451.0784204104789,
      "semi_major_axis_km": 6832.401273606702,
      "eccentricity": 0.0004881,
      "inclination_deg": 45.002,
      "raan_deg": 169.5947,
      "arg_perigee_deg": 342.8404,
      "mean_anomaly_deg": 17.2318,
      "mean_motion_rev_day": 15.37243674
    },
    {
      "epoch": "2026-05-05T11:00:32.825664Z",
      "apogee_km": 456.9443656571184,
      "perigee_km": 450.82424097360854,
      "latitude_deg": -5.504705902550013e-05,
      "longitude_deg": 124.56397032063143,
      "height_km": 450.8236367733151,
      "semi_major_axis_km": 6832.021303315363,
      "eccentricity": 0.0004479,
      "inclination_deg": 45.0023,
      "raan_deg": 153.0342,
      "arg_perigee_deg": 359.515,
      "mean_anomaly_deg": 0.5731,
      "mean_motion_rev_day": 15.37371919
    },
    {
      "epoch": "2026-05-05T11:00:32.826528Z",
      "apogee_km": 456.9443656571184,
      "perigee_km": 450.82424097360854,
      "latitude_deg": 1.6094641362921396e-05,
      "longitude_deg": 124.56403745203554,
      "height_km": 450.82362754660846,
      "semi_major_axis_km": 6832.021303315363,
      "eccentricity": 0.0004479,
      "inclination_deg": 45.0023,
      "raan_deg": 153.0342,
      "arg_perigee_deg": 359.5151,
      "mean_anomaly_deg": 0.5731,
      "mean_motion_rev_day": 15.37371919
    },
    {
      "epoch": "2026-05-07T17:35:19.358016Z",
      "apogee_km": 456.56077645374353,
      "perigee_km": 450.8124800529313,
      "latitude_deg": -2.1581162973967562e-05,
      "longitude_deg": 11.027506155502342,
      "height_km": 450.9043076636992,
      "semi_major_axis_km": 6831.823628253337,
      "eccentricity": 0.0004207,
      "inclination_deg": 45.0029,
      "raan_deg": 140.4331,
      "arg_perigee_deg": 14.6747,
      "mean_anomaly_deg": 345.4261,
      "mean_motion_rev_day": 15.37438644
    },
    {
      "epoch": "2026-05-08T16:58:45.343200Z",
      "apogee_km": 456.3905365307455,
      "perigee_km": 450.7953497073322,
      "latitude_deg": -3.101885353841989e-05,
      "longitude_deg": 13.808306440037908,
      "height_km": 450.99279960711925,
      "semi_major_axis_km": 6831.729943119039,
      "eccentricity": 0.0004095,
      "inclination_deg": 45.0029,
      "raan_deg": 135.0328,
      "arg_perigee_deg": 21.794,
      "mean_anomaly_deg": 338.312,
      "mean_motion_rev_day": 15.37470269
    }
  ]
}